{"type": "FeatureCollection", "features": [ {"type": "Feature", "properties": {"norad_id": 66052, "name": "HRC MONOBLOCK CAMERA", "group": "stations", "lat": 21.763644493718946, "lon": -98.9571728811717, "alt_km": 400.09741518355986, "timestamp": "2025-12-21T03:56:49.648476+00:00", "meta": {"OBJECT_NAME": "HRC MONOBLOCK CAMERA", "OBJECT_ID": "1998-067XR", "EPOCH": "2025-12-20T19:35:01.872960", "MEAN_MOTION": 15.5467343, "ECCENTRICITY": 0.0002397, "INCLINATION": 51.6308, "RA_OF_ASC_NODE": 101.2223, "ARG_OF_PERICENTER": 223.3083, "MEAN_ANOMALY": 136.772, "EPHEMERIS_TYPE": 0, "CLASSIFICATION_TYPE": "U", "NORAD_CAT_ID": 66052, "ELEMENT_SET_NO": 999, "REV_AT_EPOCH": 1009, "BSTAR": 0.00038307, "MEAN_MOTION_DOT": 0.0002547, "MEAN_MOTION_DDOT": 0}, "tle": {"line1": "1 66052U 98067XR  25354.81599390  .00025470  00000+0  38307-3 0  9993", "line2": "2 66052  51.6308 101.2223 0002397 223.3083 136.7720 15.54673430 10091"}}, "geometry": {"type": "Point", "coordinates": [-98.9571728811717, 21.763644493718946]}}, {"type": "Feature", "properties": {"norad_id": 66174, "name": "HTV-X1", "group": "stations", "lat": -50.22164686617377, "lon": -7.139601288627777, "alt_km": 420.1708448175714, "timestamp": "2025-12-21T03:56:49.648487+00:00", "meta": {"OBJECT_NAME": "HTV-X1", "OBJECT_ID": "2025-241A", "EPOCH": "2025-12-20T14:27:14.498496", "MEAN_MOTION": 15.49685042, "ECCENTRICITY": 0.00031934, "INCLINATION": 51.6321, "RA_OF_ASC_NODE": 103.5427, "ARG_OF_PERICENTER": 277.2005, "MEAN_ANOMALY": 82.862, "EPHEMERIS_TYPE": 0, "CLASSIFICATION_TYPE": "U", "NORAD_CAT_ID": 66174, "ELEMENT_SET_NO": 999, "REV_AT_EPOCH": 51, "BSTAR": 0.00012983891, "MEAN_MOTION_DOT": 6.881e-05, "MEAN_MOTION_DDOT": 0}, "tle": {"line1": "1 66174U 25241A   25354.60225114  .00006881  00000+0  12984-3 0  9997", "line2": "2 66174  51.6321 103.5427 0003193 277.2005  82.8620 15.49685042   511"}}, "geometry": {"type": "Point", "coordinates": [-7.139601288627777, -50.22164686617377]}}, {"type": "Feature", "properties": {"norad_id": 66515, "name": "SZ-21 MODULE", "group": "stations", "lat": -8.946898005265261, "lon": -45.62952097138037, "alt_km": 377.14953793935547, "timestamp": "2025-12-21T03:56:49.648496+00:00", "meta": {"OBJECT_NAME": "SZ-21 MODULE", "OBJECT_ID": "2025-246C", "EPOCH": "2025-12-20T15:44:09.666816", "MEAN_MOTION": 15.62874588, "ECCENTRICITY": 0.0005539, "INCLINATION": 41.4776, "RA_OF_ASC_NODE": 327.7431, "ARG_OF_PERICENTER": 301.9877, "MEAN_ANOMALY": 58.0424, "EPHEMERIS_TYPE": 0, "CLASSIFICATION_TYPE": "U", "NORAD_CAT_ID": 66515, "ELEMENT_SET_NO": 999, "REV_AT_EPOCH": 568, "BSTAR": 0.00022369, "MEAN_MOTION_DOT": 0.00020514, "MEAN_MOTION_DDOT": 0}, "tle": {"line1": "1 66515U 25246C   25354.65566744  .00020514  00000+0  22369-3 0  9990", "line2": "2 66515  41.4776 327.7431 0005539 301.9877  58.0424 15.62874588  5684"}}, "geometry": {"type": "Point", "coordinates": [-45.62952097138037, -8.946898005265261]}}, {"type": "Feature", "properties": {"norad_id": 66645, "name": "SHENZHOU-22", "group": "stations", "lat": -15.399301411615902, "lon": -52.627450762931915, "alt_km": 393.5330747018279, "timestamp": "2025-12-21T03:56:49.648506+00:00", "meta": {"OBJECT_NAME": "SHENZHOU-22", "OBJECT_ID": "2025-272A", "EPOCH": "2025-12-20T09:36:17.868384", "MEAN_MOTION": 15.59501485, "ECCENTRICITY": 0.00077102, "INCLINATION": 41.4685, "RA_OF_ASC_NODE": 330.1895, "ARG_OF_PERICENTER": 98.1704, "MEAN_ANOMALY": 262.0009, "EPHEMERIS_TYPE": 0, "CLASSIFICATION_TYPE": "U", "NORAD_CAT_ID": 66645, "ELEMENT_SET_NO": 999, "REV_AT_EPOCH": 26519, "BSTAR": 0.00021960295, "MEAN_MOTION_DOT": 0.00017645, "MEAN_MOTION_DDOT": 0}, "tle": {"line1": "1 66645U 25272A   25354.40020681  .00017645  00000+0  21960-3 0  9998", "line2": "2 66645  41.4685 330.1895 0007710  98.1704 262.0009 15.59501485265195"}}, "geometry": {"type": "Point", "coordinates": [-52.627450762931915, -15.399301411615902]}}, {"type": "Feature", "properties": {"norad_id": 66664, "name": "SOYUZ-MS 28", "group": "stations", "lat": -50.221660747166695, "lon": -7.139513921420446, "alt_km": 420.1708444368969, "timestamp": "2025-12-21T03:56:49.648516+00:00", "meta": {"OBJECT_NAME": "SOYUZ-MS 28", "OBJECT_ID": "2025-275A", "EPOCH": "2025-12-20T14:27:14.497632", "MEAN_MOTION": 15.49685042, "ECCENTRICITY": 0.0003193, "INCLINATION": 51.6321, "RA_OF_ASC_NODE": 103.5427, "ARG_OF_PERICENTER": 277.2005, "MEAN_ANOMALY": 82.862, "EPHEMERIS_TYPE": 0, "CLASSIFICATION_TYPE": "U", "NORAD_CAT_ID": 66664, "ELEMENT_SET_NO": 999, "REV_AT_EPOCH": 366, "BSTAR": 0.00012984, "MEAN_MOTION_DOT": 6.881e-05, "MEAN_MOTION_DDOT": 0}, "tle": {"line1": "1 66664U 25275A   25354.60225113  .00006881  00000+0  12984-3 0  9997", "line2": "2 66664  51.6321 103.5427 0003193 277.2005  82.8620 15.49685042  3664"}}, "geometry": {"type": "Point", "coordinates": [-7.139513921420446, -50.221660747166695]}}, {"type": "Feature", "properties": {"norad_id": 66906, "name": "1998-067XS", "group": "stations", "lat": -27.72210397360128, "lon": 76.01794738770212, "alt_km": 417.11419021206257, "timestamp": "2025-12-21T03:56:49.648526+00:00", "meta": {"OBJECT_NAME": "1998-067XS", "OBJECT_ID": "1998-067XS", "EPOCH": "2025-12-20T11:05:35.991168", "MEAN_MOTION": 15.50962254, "ECCENTRICITY": 0.00030029, "INCLINATION": 51.6311, "RA_OF_ASC_NODE": 104.1082, "ARG_OF_PERICENTER": 237.5, "MEAN_ANOMALY": 122.5699, "EPHEMERIS_TYPE": 0, "CLASSIFICATION_TYPE": "U", "NORAD_CAT_ID": 66906, "ELEMENT_SET_NO": 999, "REV_AT_EPOCH": 281, "BSTAR": 0.00037246497, "MEAN_MOTION_DOT": 0.00021596, "MEAN_MOTION_DDOT": 0}, "tle": {"line1": "1 66906U 98067XS  25354.46222212  .00021596  00000+0  37246-3 0  9994", "line2": "2 66906  51.6311 104.1082 0003002 237.5000 122.5699 15.50962254  2818"}}, "geometry": {"type": "Point", "coordinates": [76.01794738770212, -27.72210397360128]}}, {"type": "Feature", "properties": {"norad_id": 66907, "name": "1998-067XT", "group": "stations", "lat": 11.30796372287912, "lon": 109.62894495671382, "alt_km": 409.41338015567453, "timestamp": "2025-12-21T03:56:49.648535+00:00", "meta": {"OBJECT_NAME": "1998-067XT", "OBJECT_ID": "1998-067XT", "EPOCH": "2025-12-19T11:42:50.767776", "MEAN_MOTION": 15.52255247, "ECCENTRICITY": 0.0003998, "INCLINATION": 51.6306, "RA_OF_ASC_NODE": 108.8528, "ARG_OF_PERICENTER": 265.7173, "MEAN_ANOMALY": 94.336, "EPHEMERIS_TYPE": 0, "CLASSIFICATION_TYPE": "U", "NORAD_CAT_ID": 66907, "ELEMENT_SET_NO": 999, "REV_AT_EPOCH": 266, "BSTAR": 0.00077339, "MEAN_MOTION_DOT": 0.00047666, "MEAN_MOTION_DDOT": 0}, "tle": {"line1": "1 66907U 98067XT  25353.48808759  .00047666  00000+0  77339-3 0  9995", "line2": "2 66907  51.6306 108.8528 0003998 265.7173  94.3360 15.52255247  2660"}}, "geometry": {"type": "Point", "coordinates": [109.62894495671382, 11.30796372287912]}}, {"type": "Feature", "properties": {"norad_id": 66908, "name": "1998-067XU", "group": "stations", "lat": 14.945696123391102, "lon": 112.71586955032447, "alt_km": 408.6512982227241, "timestamp": "2025-12-21T03:56:49.648556+00:00", "meta": {"OBJECT_NAME": "1998-067XU", "OBJECT_ID": "1998-067XU", "EPOCH": "2025-12-20T13:57:38.962944", "MEAN_MOTION": 15.52465702, "ECCENTRICITY": 0.0003923, "INCLINATION": 51.6312, "RA_OF_ASC_NODE": 103.4063, "ARG_OF_PERICENTER": 272.2862, "MEAN_ANOMALY": 87.7679, "EPHEMERIS_TYPE": 0, "CLASSIFICATION_TYPE": "U", "NORAD_CAT_ID": 66908, "ELEMENT_SET_NO": 999, "REV_AT_EPOCH": 283, "BSTAR": 0.00073918, "MEAN_MOTION_DOT": 0.00045874, "MEAN_MOTION_DDOT": 0}, "tle": {"line1": "1 66908U 98067XU  25354.58170096  .00045874  00000+0  73918-3 0  9992", "line2": "2 66908  51.6312 103.4063 0003923 272.2862  87.7679 15.52465702  2836"}}, "geometry": {"type": "Point", "coordinates": [112.71586955032447, 14.945696123391102]}}, {"type": "Feature", "properties": {"norad_id": 66909, "name": "SILVERSAT", "group": "stations", "lat": 19.570901295939468, "lon": 116.85162368570855, "alt_km": 407.6994447361949, "timestamp": "2025-12-21T03:56:49.648566+00:00", "meta": {"OBJECT_NAME": "SILVERSAT", "OBJECT_ID": "1998-067XV", "EPOCH": "2025-12-19T13:13:09.424128", "MEAN_MOTION": 15.5251652, "ECCENTRICITY": 0.0003839, "INCLINATION": 51.6306, "RA_OF_ASC_NODE": 108.5226, "ARG_OF_PERICENTER": 268.696, "MEAN_ANOMALY": 91.359, "EPHEMERIS_TYPE": 0, "CLASSIFICATION_TYPE": "U", "NORAD_CAT_ID": 66909, "ELEMENT_SET_NO": 999, "REV_AT_EPOCH": 267, "BSTAR": 0.00079912, "MEAN_MOTION_DOT": 0.00049748, "MEAN_MOTION_DDOT": 0}, "tle": {"line1": "1 66909U 98067XV  25353.55080352  .00049748  00000+0  79912-3 0  9998", "line2": "2 66909  51.6306 108.5226 0003839 268.6960  91.3590 15.52516520  2671"}}, "geometry": {"type": "Point", "coordinates": [116.85162368570855, 19.570901295939468]}}, {"type": "Feature", "properties": {"norad_id": 66910, "name": "1998-067XW", "group": "stations", "lat": 26.942727820145766, "lon": 124.2198690988495, "alt_km": 407.84572677580036, "timestamp": "2025-12-21T03:56:49.648576+00:00", "meta": {"OBJECT_NAME": "1998-067XW", "OBJECT_ID": "1998-067XW", "EPOCH": "2025-12-20T20:04:19.500384", "MEAN_MOTION": 15.52648438, "ECCENTRICITY": 0.0004199, "INCLINATION": 51.6307, "RA_OF_ASC_NODE": 102.1064, "ARG_OF_PERICENTER": 252.0731, "MEAN_ANOMALY": 107.9801, "EPHEMERIS_TYPE": 0, "CLASSIFICATION_TYPE": "U", "NORAD_CAT_ID": 66910, "ELEMENT_SET_NO": 999, "REV_AT_EPOCH": 287, "BSTAR": 0.00071944, "MEAN_MOTION_DOT": 0.0004493, "MEAN_MOTION_DDOT": 0}, "tle": {"line1": "1 66910U 98067XW  25354.83633681  .00044930  00000+0  71944-3 0  9996", "line2": "2 66910  51.6307 102.1064 0004199 252.0731 107.9801 15.52648438  2872"}}, "geometry": {"type": "Point", "coordinates": [124.2198690988495, 26.942727820145766]}}]}